TIANMU-1 07             
1 57399U 23101A   26065.57454230  .00008352  00000+0  29795-3 0  9991
2 57399  97.2728 118.5929 0004609 142.4105 217.7458 15.29118809145964
STARLINK-36441          
1 67469U 26008AA  26068.59174816  .00023438  00000+0  85882-3 0  9994
2 67469  42.9987 206.0758 0001634 278.6295  81.4372 15.27568643  9555
